BranchID,BranchName,Address,City,State,Country,ManagerID,ContactNumber
1,South Daniel Branch,"PSC 5163, Box 1253, APO AA 77830",Caseview,Texas,Belgium,,001-608-017-9671x73726
2,Gaineston Branch,"12463 Keith Parkways Suite 342, Clarkchester, AR 65299",South Christineberg,Oregon,Cayman Islands,,001-094-237-3259x38406
3,Thompsonport Branch,"55922 Logan Estates, North Johnchester, RI 54261",Port Brendahaven,North Carolina,Guadeloupe,,821-205-4368
4,Jonathanfort Branch,"9427 Valerie Plain, Port Kristy, TN 72572",Melissamouth,Delaware,Nepal,,144.781.1686x7429
5,North Sarahport Branch,"PSC 6368, Box 7537, APO AA 31381",Cookburgh,Mississippi,Christmas Island,,(808)709-9236
6,East Joseph Branch,"PSC 6573, Box 3927, APO AA 97795",Johnsonberg,Montana,Chile,,341.514.5271
7,Lake Crystalburgh Branch,"8294 Lance Curve, Maryview, MN 81288",Andreashire,New Mexico,Bermuda,,001-578-632-5769x1258
8,East Dawnshire Branch,"195 Diaz Field Apt. 116, West Johnchester, MA 57893",South Brianamouth,Rhode Island,Bosnia and Herzegovina,,029.392.6185x90937
9,Lake Melissa Branch,"4788 Mclaughlin Ridges Apt. 503, Port Michelle, RI 65590",Mathewsport,Washington,Philippines,,(585)145-0261x417
10,Bradystad Branch,"30505 Levy Walk Apt. 171, New Jared, OH 26552",Smithville,West Virginia,Palau,,291.232.2781x161
11,Charlesborough Branch,"857 Ashley Lane Apt. 117, East Joshua, FL 96183",Pennyhaven,South Dakota,Cape Verde,,4059391052
12,Armstrongport Branch,"8632 Gail Views Apt. 578, Bateston, CO 63564",Davidtown,New York,Mauritania,,+1-204-614-1468x25750
13,Parkerburgh Branch,"USCGC Wilson, FPO AP 56749",South Karen,Wisconsin,Georgia,,001-139-442-8087x2691
14,Destinyland Branch,"87926 Simpson Spur Apt. 741, Pearsonport, UT 50066",Olsenmouth,Nevada,Mauritania,,524-523-4338
15,Julieborough Branch,"7874 Gonzalez Manor, Austinbury, ND 26532",Port Julia,California,Myanmar,,(465)165-2381
16,Butlerborough Branch,"Unit 0526 Box 2193, DPO AP 95681",Williamstown,Kentucky,British Indian Ocean Territory (Chagos Archipelago),,956.373.2172x28008
17,East Kristin Branch,"11961 Bright Wall, Joshuaton, NC 98491",Jeffreyton,Oklahoma,Canada,,817-076-8066x123
18,Weststad Branch,"2611 Cobb Island Suite 456, Joshuaview, FL 76209",South Alison,Alaska,United Kingdom,,(973)343-3660
19,West Johnhaven Branch,"31589 Baker Heights Suite 442, Jeffreyview, ND 75557",West Trevorside,Connecticut,Nicaragua,,242-895-9715x579
20,Lake Shannonview Branch,"27796 Rodriguez Light Suite 334, Port Nicolas, VA 30760",North Amandaberg,Utah,Austria,,(344)767-8279
21,West Alexanderside Branch,"308 Adams Ferry, Steveberg, AR 42492",South Jeanne,Maine,Vietnam,,001-034-276-1619x6004
22,Burkechester Branch,"USCGC Johnson, FPO AE 85540",North Christopher,North Dakota,Germany,,650-952-5497x9127
23,North Dawn Branch,"681 Brown Expressway, Perezberg, WV 58311",Snydershire,Michigan,Uzbekistan,,(300)638-2130
24,Jamieside Branch,"4091 Parker Island Suite 502, Daviesfurt, NJ 41601",Brianmouth,Mississippi,Maldives,,-4484
25,West Kathrynport Branch,"9881 Nguyen Key, Comptonberg, HI 91164",Morganview,Texas,Ukraine,,303-886-3111x330
26,Johnsonberg Branch,"USS Rodriguez, FPO AA 85292",Port Janice,North Dakota,Morocco,,(040)273-6472
27,West Russellmouth Branch,"068 Steven Mount, Sampsonhaven, TX 66664",East Samuel,Connecticut,Cayman Islands,,(394)526-7327
28,North Madeline Branch,"764 Trevor Roads, North Markhaven, NJ 88431",Rachaelport,Washington,Timor-Leste,,(155)092-8866
29,East Elizabethberg Branch,"583 Cruz River Apt. 422, Douglasfort, NJ 26199",Lake James,Nevada,Greenland,,6472150906
30,New Lisa Branch,"PSC 8909, Box 0108, APO AA 08399",North Sarahstad,South Carolina,Saudi Arabia,,303-436-4735x68275
31,New Linda Branch,"06685 George Rest, Brownport, MA 40980",Jamesmouth,Georgia,Morocco,,+1-908-765-8432x025
32,Lake Gregoryton Branch,"1799 Blake Pass, Lake Stephanie, FL 80646",East James,Utah,Saint Barthelemy,,574-138-3401
33,Levyton Branch,"770 Jorge Locks, Lindseychester, AL 59907",North Brent,West Virginia,Anguilla,,001-109-275-6547
34,South Morganstad Branch,"80624 Ford Extension Apt. 486, Ryanview, PA 84587",Brentland,Indiana,Russian Federation,,001-847-425-7465x25982
35,Reevesmouth Branch,"74606 Wallace Centers Suite 542, New Roger, NV 22470",North Heather,Wisconsin,Rwanda,,001-035-592-5275
36,Valerieview Branch,"44085 Rice Inlet, Lake Davidchester, PA 72669",North Jadefort,Nevada,El Salvador,,+1-101-085-5881x968
37,South Sarahbury Branch,"7054 Myers Port Suite 281, Mcmahonchester, MO 87946",Lake Stephanie,Utah,Macedonia,,-3082
38,South Michael Branch,"9591 Courtney Ports, West Ronaldchester, IL 86164",New Linda,Kentucky,Slovenia,,001-893-516-9643x052
39,Laurashire Branch,"946 Curtis Junction Apt. 872, Mcfarlandtown, NE 77003",Lake Stevemouth,Kentucky,Jersey,,2280865246
40,Jerryhaven Branch,"05970 Clark Mount, New Lori, DE 04480",Wigginsshire,Tennessee,Bulgaria,,001-959-158-3342x999
41,West Carolinestad Branch,"57667 John Common, Lake Rhondabury, AL 19067",Westshire,Pennsylvania,Zambia,,+1-317-927-5896x28079
42,East Anthony Branch,"4676 Sarah Harbor, East Cheryl, NV 14488",Christineshire,Washington,Guinea-Bissau,,001-233-302-6275
43,Schmittshire Branch,"012 Elijah Estates, East Teresa, SC 39764",Campbellfort,California,Palau,,+1-808-754-9576x6585
44,Terrancemouth Branch,"USNS Mason, FPO AA 76017",Jimenezville,Louisiana,Bolivia,,+1-332-030-4928x29849
45,Danielburgh Branch,"PSC 1028, Box 0987, APO AE 86273",Davidstad,Wyoming,China,,065-601-0780x169
46,Craigfort Branch,"467 Ford Divide, Williamfort, AL 00579",Riveraside,Nevada,Finland,,407-037-1122x28431
47,Port Meganstad Branch,"469 John Point, Matthewborough, AL 96106",Lake Derrickbury,Texas,Netherlands,,+1-422-727-8567x7223
48,Maxwellbury Branch,"01502 Duncan Turnpike Apt. 883, Christopherfort, WA 76703",East Destiny,Connecticut,Guatemala,,001-059-155-5097x40259
49,Christyshire Branch,"827 Russell Fall Suite 726, West Kimberly, WI 44151",East Davidtown,Arkansas,Ukraine,,951-352-7249x6705
50,Elizabethland Branch,"50267 Jeremy Hill Suite 382, Watsonfort, GA 88382",Morganstad,Illinois,Togo,,001-879-943-4218x72030
